NOAA 15                 
1 25338U 98030A   22227.84429075  .00000116  00000+0  66519-4 0  9993
2 25338  98.6414 256.5945 0011427 121.6815 238.5480 14.26161327261484
NOAA 18                 
1 28654U 05018A   22227.76845438  .00000172  00000+0  11662-3 0  9997
2 28654  98.9460 298.1492 0014760 160.2446 199.9300 14.12764609888352
NOAA 19                 
1 33591U 09005A   22227.84728722  .00000115  00000+0  87162-4 0  9994
2 33591  99.1445 263.2211 0014240  25.4409 334.7460 14.12598837696575
METOP-B                 
1 38771U 12049A   22227.83216175  .00000060  00000+0  47290-4 0  9991
2 38771  98.6916 286.6942 0000659 132.5125 335.4182 14.21501444514173
SARAL                   
1 39086U 13009A   22227.77934000  .00000029  00000+0  27021-4 0  9990
2 39086  98.5489  52.5386 0002330  91.4905 268.6546 14.32056764494974
METOP-C                 
1 43689U 18087A   22227.77766069  .00000057  00000+0  46071-4 0  9990
2 43689  98.6799 286.7867 0002096 204.5519 155.5559 14.21501446195735
ANGELS                  
1 44876U 19092D   22227.59206044  .00002186  00000+0  11017-3 0  9994
2 44876  97.4761  50.2493 0012834 145.8247 214.3816 15.18158756147214
